<?xml version='1.0' encoding='UTF-8'?>
<osm version='0.6' generator='JOSM'>
  <node id='-101752' action='modify' visible='true' lat='35.1803738' lon='126.90542079999' />
  <node id='-101753' action='modify' visible='true' lat='35.18038230717' lon='126.90541377976' />
  <node id='-101754' action='modify' visible='true' lat='35.18039057419' lon='126.90540692539' />
  <node id='-101755' action='modify' visible='true' lat='35.18039844285' lon='126.90540053238' />
  <node id='-101756' action='modify' visible='true' lat='35.18040701355' lon='126.90539369648' />
  <node id='-101757' action='modify' visible='true' lat='35.18041476599' lon='126.90538767498' />
  <node id='-101758' action='modify' visible='true' lat='35.18042304418' lon='126.90538169774' />
  <node id='-101759' action='modify' visible='true' lat='35.1804300545' lon='126.90537638039' />
  <node id='-101760' action='modify' visible='true' lat='35.1804436238' lon='126.9053647354' />
  <node id='-101761' action='modify' visible='true' lat='35.18045043156' lon='126.90537275774' />
  <node id='-101762' action='modify' visible='true' lat='35.18045554909' lon='126.90537884941' />
  <node id='-101763' action='modify' visible='true' lat='35.18046243252' lon='126.90538781755' />
  <node id='-101764' action='modify' visible='true' lat='35.18046855269' lon='126.90539431547' />
  <node id='-101765' action='modify' visible='true' lat='35.1804731875' lon='126.90540021517' />
  <node id='-101766' action='modify' visible='true' lat='35.1804795989' lon='126.90540969075' />
  <node id='-101767' action='modify' visible='true' lat='35.180486143' lon='126.90541899215' />
  <node id='-101768' action='modify' visible='true' lat='35.18049292896' lon='126.90542870361' />
  <node id='-101769' action='modify' visible='true' lat='35.18049968689' lon='126.9054383066' />
  <node id='-101770' action='modify' visible='true' lat='35.18050641876' lon='126.9054481193' />
  <node id='-101771' action='modify' visible='true' lat='35.18051285829' lon='126.90545777506' />
  <node id='-101772' action='modify' visible='true' lat='35.18051925375' lon='126.90546745059' />
  <node id='-101773' action='modify' visible='true' lat='35.18052541916' lon='126.90547700401' />
  <node id='-101774' action='modify' visible='true' lat='35.18053121713' lon='126.90548605338' />
  <node id='-101775' action='modify' visible='true' lat='35.18053706083' lon='126.90549496731' />
  <node id='-101776' action='modify' visible='true' lat='35.18054323129' lon='126.90550414041' />
  <node id='-101777' action='modify' visible='true' lat='35.1805491417' lon='126.90551304638' />
  <node id='-101778' action='modify' visible='true' lat='35.18055536527' lon='126.90552252777' />
  <node id='-101779' action='modify' visible='true' lat='35.18056109316' lon='126.9055313714' />
  <node id='-101780' action='modify' visible='true' lat='35.18056696974' lon='126.90554041016' />
  <node id='-101781' action='modify' visible='true' lat='35.18057332819' lon='126.9055504501' />
  <node id='-101782' action='modify' visible='true' lat='35.18057964727' lon='126.90556047763' />
  <node id='-101783' action='modify' visible='true' lat='35.18058567457' lon='126.90557019759' />
  <node id='-101784' action='modify' visible='true' lat='35.18059216775' lon='126.90558092158' />
  <node id='-101785' action='modify' visible='true' lat='35.1805980867' lon='126.9055903376' />
  <node id='-101786' action='modify' visible='true' lat='35.18060420815' lon='126.90559893556' />
  <node id='-101787' action='modify' visible='true' lat='35.18061045183' lon='126.9056075935' />
  <node id='-101788' action='modify' visible='true' lat='35.18061677143' lon='126.90561655461' />
  <node id='-101789' action='modify' visible='true' lat='35.18062308552' lon='126.90562559268' />
  <node id='-101790' action='modify' visible='true' lat='35.1806290565' lon='126.90563486978' />
  <node id='-101791' action='modify' visible='true' lat='35.18063478323' lon='126.9056440636' />
  <node id='-101792' action='modify' visible='true' lat='35.18064028318' lon='126.90565297843' />
  <node id='-101793' action='modify' visible='true' lat='35.18064629416' lon='126.90566183772' />
  <node id='-101794' action='modify' visible='true' lat='35.18065209289' lon='126.90567079438' />
  <node id='-101795' action='modify' visible='true' lat='35.18065771106' lon='126.90567973422' />
  <node id='-101796' action='modify' visible='true' lat='35.18066352858' lon='126.90568929334' />
  <node id='-101797' action='modify' visible='true' lat='35.18066932194' lon='126.90569884801' />
  <node id='-101798' action='modify' visible='true' lat='35.18067507644' lon='126.90570874175' />
  <node id='-101799' action='modify' visible='true' lat='35.18068098221' lon='126.90571857934' />
  <node id='-101800' action='modify' visible='true' lat='35.18068732074' lon='126.90572856189' />
  <node id='-101801' action='modify' visible='true' lat='35.18069335082' lon='126.905737894' />
  <node id='-101802' action='modify' visible='true' lat='35.18069988698' lon='126.90574803121' />
  <node id='-101803' action='modify' visible='true' lat='35.18070596673' lon='126.90575745734' />
  <node id='-101804' action='modify' visible='true' lat='35.18071214249' lon='126.90576678584' />
  <node id='-101805' action='modify' visible='true' lat='35.180718674' lon='126.90577673528' />
  <node id='-101806' action='modify' visible='true' lat='35.18072505296' lon='126.90578639962' />
  <node id='-101807' action='modify' visible='true' lat='35.18073100574' lon='126.90579568823' />
  <node id='-101808' action='modify' visible='true' lat='35.18073684188' lon='126.90580516933' />
  <node id='-101809' action='modify' visible='true' lat='35.18074259155' lon='126.90581432476' />
  <node id='-101810' action='modify' visible='true' lat='35.18074864658' lon='126.90582444343' />
  <node id='-101811' action='modify' visible='true' lat='35.18075451971' lon='126.90583422186' />
  <node id='-101812' action='modify' visible='true' lat='35.18076080221' lon='126.90584378865' />
  <node id='-101813' action='modify' visible='true' lat='35.18076712484' lon='126.90585325607' />
  <node id='-101814' action='modify' visible='true' lat='35.18077320067' lon='126.90586276466' />
  <node id='-101815' action='modify' visible='true' lat='35.18077891701' lon='126.9058716737' />
  <node id='-101816' action='modify' visible='true' lat='35.18078483836' lon='126.90588070691' />
  <node id='-101817' action='modify' visible='true' lat='35.18079057755' lon='126.90588981784' />
  <node id='-101818' action='modify' visible='true' lat='35.18079644479' lon='126.90589934101' />
  <node id='-101819' action='modify' visible='true' lat='35.18080226237' lon='126.90590874725' />
  <node id='-101820' action='modify' visible='true' lat='35.18080855654' lon='126.90591822768' />
  <node id='-101821' action='modify' visible='true' lat='35.18081453462' lon='126.90592704933' />
  <node id='-101822' action='modify' visible='true' lat='35.18082023254' lon='126.90593569726' />
  <node id='-101823' action='modify' visible='true' lat='35.18082649206' lon='126.90594534383' />
  <node id='-101824' action='modify' visible='true' lat='35.18083262377' lon='126.90595488988' />
  <node id='-101825' action='modify' visible='true' lat='35.18083823241' lon='126.90596369881' />
  <node id='-101826' action='modify' visible='true' lat='35.18084455994' lon='126.90597385353' />
  <node id='-101827' action='modify' visible='true' lat='35.18085067445' lon='126.90598410519' />
  <node id='-101828' action='modify' visible='true' lat='35.18085666791' lon='126.90599404534' />
  <node id='-101829' action='modify' visible='true' lat='35.18086251503' lon='126.90600394088' />
  <node id='-101830' action='modify' visible='true' lat='35.18086848061' lon='126.90601326308' />
  <node id='-101831' action='modify' visible='true' lat='35.18087528971' lon='126.90602267502' />
  <node id='-101832' action='modify' visible='true' lat='35.18088157437' lon='126.90603221074' />
  <node id='-101833' action='modify' visible='true' lat='35.18088742354' lon='126.90604135599' />
  <node id='-101834' action='modify' visible='true' lat='35.18089372428' lon='126.90605072991' />
  <node id='-101835' action='modify' visible='true' lat='35.18089963973' lon='126.90606007041' />
  <node id='-101836' action='modify' visible='true' lat='35.18090514925' lon='126.90606902194' />
  <node id='-101837' action='modify' visible='true' lat='35.18090581214' lon='126.90607007753' />
  <node id='-101864' action='modify' visible='true' lat='35.1808407766' lon='126.90596126045' />
  <node id='-101865' action='modify' visible='true' lat='35.18085147174' lon='126.90595123611' />
  <node id='-101866' action='modify' visible='true' lat='35.18085946704' lon='126.90594322174' />
  <node id='-101867' action='modify' visible='true' lat='35.18086692261' lon='126.90593566191' />
  <node id='-101868' action='modify' visible='true' lat='35.18087516484' lon='126.90592731599' />
  <node id='-101869' action='modify' visible='true' lat='35.18088220379' lon='126.90592035532' />
  <node id='-101870' action='modify' visible='true' lat='35.18088944551' lon='126.905913391' />
  <node id='-101871' action='modify' visible='true' lat='35.18089657057' lon='126.90590656567' />
  <node id='-101872' action='modify' visible='true' lat='35.18090402118' lon='126.9058996256' />
  <node id='-101873' action='modify' visible='true' lat='35.18091257077' lon='126.90589185733' />
  <node id='-101874' action='modify' visible='true' lat='35.18092092437' lon='126.90588429966' />
  <node id='-101875' action='modify' visible='true' lat='35.18092920481' lon='126.90587749935' />
  <node id='-101876' action='modify' visible='true' lat='35.18093376438' lon='126.90587594675' />
  <node id='-101877' action='modify' visible='true' lat='35.18094336717' lon='126.90587555352' />
  <node id='-101878' action='modify' visible='true' lat='35.18095274141' lon='126.90587573264' />
  <node id='-101879' action='modify' visible='true' lat='35.18096179681' lon='126.90587586984' />
  <node id='-101880' action='modify' visible='true' lat='35.18096478474' lon='126.90587527666' />
  <node id='-101881' action='modify' visible='true' lat='35.18096764588' lon='126.90587396987' />
  <node id='-101882' action='modify' visible='true' lat='35.18097511982' lon='126.90586779284' />
  <node id='-101883' action='modify' visible='true' lat='35.1809825448' lon='126.9058609877' />
  <node id='-101884' action='modify' visible='true' lat='35.18099083065' lon='126.90585334075' />
  <node id='-101885' action='modify' visible='true' lat='35.18099832634' lon='126.90584633303' />
  <node id='-101886' action='modify' visible='true' lat='35.18100571014' lon='126.90583951311' />
  <node id='-101887' action='modify' visible='true' lat='35.18101266776' lon='126.90583218306' />
  <node id='-101888' action='modify' visible='true' lat='35.18101981377' lon='126.90582448727' />
  <node id='-101889' action='modify' visible='true' lat='35.18102703295' lon='126.90581690248' />
  <node id='-101890' action='modify' visible='true' lat='35.18103432954' lon='126.90580950244' />
  <node id='-101891' action='modify' visible='true' lat='35.18104143692' lon='126.90580235313' />
  <node id='-101892' action='modify' visible='true' lat='35.18104919529' lon='126.90579471002' />
  <node id='-101893' action='modify' visible='true' lat='35.18105684817' lon='126.90578732639' />
  <node id='-101894' action='modify' visible='true' lat='35.18106438213' lon='126.90578011352' />
  <node id='-101895' action='modify' visible='true' lat='35.18107181195' lon='126.90577290847' />
  <node id='-101896' action='modify' visible='true' lat='35.18107953749' lon='126.90576514536' />
  <node id='-101897' action='modify' visible='true' lat='35.18108783815' lon='126.9057569871' />
  <node id='-101898' action='modify' visible='true' lat='35.1810958639' lon='126.90574922637' />
  <node id='-101899' action='modify' visible='true' lat='35.18110355261' lon='126.90574202165' />
  <node id='-101900' action='modify' visible='true' lat='35.18111097128' lon='126.90573486824' />
  <node id='-101901' action='modify' visible='true' lat='35.18111915564' lon='126.90572710037' />
  <node id='-101902' action='modify' visible='true' lat='35.18112677547' lon='126.90572003275' />
  <node id='-101903' action='modify' visible='true' lat='35.18113421197' lon='126.9057131945' />
  <node id='-101904' action='modify' visible='true' lat='35.18114235095' lon='126.90570567749' />
  <node id='-101905' action='modify' visible='true' lat='35.18115039212' lon='126.90569839931' />
  <node id='-101906' action='modify' visible='true' lat='35.1811585622' lon='126.90569064902' />
  <node id='-101907' action='modify' visible='true' lat='35.18116515143' lon='126.90568191973' />
  <node id='-101908' action='modify' visible='true' lat='35.18117172207' lon='126.90567303419' />
  <node id='-101909' action='modify' visible='true' lat='35.1811778342' lon='126.90566469638' />
  <node id='-101910' action='modify' visible='true' lat='35.18118414632' lon='126.90565673492' />
  <node id='-101911' action='modify' visible='true' lat='35.18119092945' lon='126.90564893689' />
  <node id='-101912' action='modify' visible='true' lat='35.18119783973' lon='126.90564153511' />
  <node id='-101913' action='modify' visible='true' lat='35.18120494567' lon='126.90563456571' />
  <node id='-101914' action='modify' visible='true' lat='35.18121229936' lon='126.90562784683' />
  <node id='-101915' action='modify' visible='true' lat='35.18122028082' lon='126.90562085432' />
  <node id='-101916' action='modify' visible='true' lat='35.18122795398' lon='126.90561375699' />
  <node id='-101917' action='modify' visible='true' lat='35.18123589349' lon='126.90560624847' />
  <node id='-101918' action='modify' visible='true' lat='35.18124360447' lon='126.90559912678' />
  <node id='-101919' action='modify' visible='true' lat='35.1812515751' lon='126.90559177081' />
  <node id='-101920' action='modify' visible='true' lat='35.18125958293' lon='126.9055846575' />
  <node id='-101921' action='modify' visible='true' lat='35.18126807041' lon='126.90557717265' />
  <node id='-101922' action='modify' visible='true' lat='35.18127665991' lon='126.90556962896' />
  <node id='-101923' action='modify' visible='true' lat='35.18128510975' lon='126.90556219917' />
  <node id='-101924' action='modify' visible='true' lat='35.18129375745' lon='126.90555450558' />
  <node id='-101925' action='modify' visible='true' lat='35.18130216958' lon='126.9055470903' />
  <node id='-101926' action='modify' visible='true' lat='35.18131041147' lon='126.90553935118' />
  <node id='-101927' action='modify' visible='true' lat='35.18131792523' lon='126.90553134526' />
  <node id='-101928' action='modify' visible='true' lat='35.18132521544' lon='126.90552318314' />
  <node id='-101929' action='modify' visible='true' lat='35.18133294524' lon='126.90551419678' />
  <node id='-101930' action='modify' visible='true' lat='35.18133969065' lon='126.9055061888' />
  <node id='-101931' action='modify' visible='true' lat='35.1813460719' lon='126.90549925092' />
  <node id='-101932' action='modify' visible='true' lat='35.18135323199' lon='126.90549172024' />
  <node id='-101933' action='modify' visible='true' lat='35.18136252617' lon='126.90548233087' />
  <node id='-101934' action='modify' visible='true' lat='35.18136925262' lon='126.90547488954' />
  <node id='-101935' action='modify' visible='true' lat='35.18137174775' lon='126.90547238306' />
  <node id='-101936' action='modify' visible='true' lat='35.18136973698' lon='126.90547569923' />
  <node id='-101937' action='modify' visible='true' lat='35.1813721977' lon='126.90547949354' />
  <node id='-101938' action='modify' visible='true' lat='35.18137434786' lon='126.9054832818' />
  <node id='-101939' action='modify' visible='true' lat='35.18137601329' lon='126.90548641478' />
  <node id='-101940' action='modify' visible='true' lat='35.1813788428' lon='126.90549230365' />
  <node id='-101941' action='modify' visible='true' lat='35.18138448762' lon='126.90550108846' />
  <node id='-101942' action='modify' visible='true' lat='35.18139009862' lon='126.90551048677' />
  <node id='-101943' action='modify' visible='true' lat='35.18139534704' lon='126.90551942183' />
  <node id='-101944' action='modify' visible='true' lat='35.1814010032' lon='126.90552941482' />
  <node id='-101945' action='modify' visible='true' lat='35.18140689978' lon='126.90553968835' />
  <node id='-101946' action='modify' visible='true' lat='35.18141267489' lon='126.90554883638' />
  <node id='-101947' action='modify' visible='true' lat='35.18141931524' lon='126.90555903778' />
  <node id='-101948' action='modify' visible='true' lat='35.18142508415' lon='126.90556799451' />
  <node id='-101949' action='modify' visible='true' lat='35.18143100371' lon='126.90557724692' />
  <node id='-101950' action='modify' visible='true' lat='35.1814354388' lon='126.90558438001' />
  <node id='-101951' action='modify' visible='true' lat='35.18143948921' lon='126.90559054334' />
  <node id='-101952' action='modify' visible='true' lat='35.1814419275' lon='126.90559450946' />
  <node id='-101953' action='modify' visible='true' lat='35.18144448202' lon='126.90559817405' />
  <node id='-101974' action='modify' visible='true' lat='35.18137396757' lon='126.90547032816' />
  <node id='-101975' action='modify' visible='true' lat='35.18137577171' lon='126.90546865304' />
  <node id='-101976' action='modify' visible='true' lat='35.18137777131' lon='126.90546673909' />
  <node id='-101977' action='modify' visible='true' lat='35.1813803738' lon='126.90546442665' />
  <node id='-101978' action='modify' visible='true' lat='35.18138358086' lon='126.90546155543' />
  <node id='-101979' action='modify' visible='true' lat='35.18138725192' lon='126.90545832401' />
  <node id='-101980' action='modify' visible='true' lat='35.18139509893' lon='126.90545192959' />
  <node id='-101981' action='modify' visible='true' lat='35.1814030579' lon='126.9054456341' />
  <node id='-101982' action='modify' visible='true' lat='35.18141149184' lon='126.9054389195' />
  <node id='-101983' action='modify' visible='true' lat='35.18142011301' lon='126.90543160497' />
  <node id='-101984' action='modify' visible='true' lat='35.18142814501' lon='126.90542458887' />
  <node id='-101985' action='modify' visible='true' lat='35.18143590772' lon='126.90541783806' />
  <node id='-101986' action='modify' visible='true' lat='35.18144351325' lon='126.9054113648' />
  <node id='-101987' action='modify' visible='true' lat='35.18145099712' lon='126.90540494368' />
  <node id='-101988' action='modify' visible='true' lat='35.18145801374' lon='126.90539788472' />
  <node id='-101989' action='modify' visible='true' lat='35.18146511473' lon='126.90539049898' />
  <node id='-101990' action='modify' visible='true' lat='35.18147211441' lon='126.90538319653' />
  <node id='-101991' action='modify' visible='true' lat='35.18147929333' lon='126.9053757589' />
  <node id='-101992' action='modify' visible='true' lat='35.18148684575' lon='126.90536811638' />
  <node id='-101993' action='modify' visible='true' lat='35.18149417251' lon='126.90536081165' />
  <node id='-101994' action='modify' visible='true' lat='35.18150140599' lon='126.90535365328' />
  <node id='-101995' action='modify' visible='true' lat='35.18150879429' lon='126.90534644764' />
  <node id='-101996' action='modify' visible='true' lat='35.18151632179' lon='126.90533928444' />
  <node id='-101997' action='modify' visible='true' lat='35.18152403978' lon='126.90533203659' />
  <node id='-101998' action='modify' visible='true' lat='35.1815285709' lon='126.9053280442' />
  <node id='-101999' action='modify' visible='true' lat='35.18153327844' lon='126.90532373544' />
  <node id='-102000' action='modify' visible='true' lat='35.1815365105' lon='126.90532081672' />
  <node id='-102001' action='modify' visible='true' lat='35.18153984216' lon='126.90531786735' />
  <node id='-102002' action='modify' visible='true' lat='35.18154177007' lon='126.90531604564' />
  <node id='-102003' action='modify' visible='true' lat='35.18154415726' lon='126.90531344395' />
  <node id='-102004' action='modify' visible='true' lat='35.18154436076' lon='126.90531327479' />
  <node id='-102005' action='modify' visible='true' lat='35.18155097433' lon='126.90532205224' />
  <node id='-102006' action='modify' visible='true' lat='35.18155772445' lon='126.90533185888' />
  <node id='-102007' action='modify' visible='true' lat='35.18156441972' lon='126.90534208868' />
  <node id='-102008' action='modify' visible='true' lat='35.18157015836' lon='126.90535082906' />
  <node id='-102009' action='modify' visible='true' lat='35.18157478512' lon='126.90535764722' />
  <node id='-102039' action='modify' visible='true' lat='35.18149410936' lon='126.90535775126' />
  <node id='-102040' action='modify' visible='true' lat='35.18148931714' lon='126.9053500116' />
  <node id='-102041' action='modify' visible='true' lat='35.18148309614' lon='126.90533982696' />
  <node id='-102042' action='modify' visible='true' lat='35.18147667594' lon='126.90532914124' />
  <node id='-102043' action='modify' visible='true' lat='35.18147106078' lon='126.90531963861' />
  <node id='-102044' action='modify' visible='true' lat='35.18146533812' lon='126.90530972629' />
  <node id='-102045' action='modify' visible='true' lat='35.18145934743' lon='126.90529925004' />
  <node id='-102046' action='modify' visible='true' lat='35.18145319302' lon='126.90528823965' />
  <node id='-102047' action='modify' visible='true' lat='35.18144816401' lon='126.90527898395' />
  <node id='-102048' action='modify' visible='true' lat='35.18144223217' lon='126.90526804936' />
  <node id='-102049' action='modify' visible='true' lat='35.18143589198' lon='126.90525799317' />
  <node id='-102050' action='modify' visible='true' lat='35.18142941511' lon='126.90524767351' />
  <node id='-102051' action='modify' visible='true' lat='35.18142384067' lon='126.90523882305' />
  <node id='-102052' action='modify' visible='true' lat='35.18141762776' lon='126.90522886452' />
  <node id='-102053' action='modify' visible='true' lat='35.181412197' lon='126.90521981151' />
  <node id='-102054' action='modify' visible='true' lat='35.18140593289' lon='126.9052114333' />
  <node id='-102055' action='modify' visible='true' lat='35.18139955108' lon='126.90520345559' />
  <node id='-102056' action='modify' visible='true' lat='35.18139279852' lon='126.90519521032' />
  <node id='-102057' action='modify' visible='true' lat='35.18138595261' lon='126.90518688873' />
  <node id='-102058' action='modify' visible='true' lat='35.18137929699' lon='126.90517837866' />
  <node id='-102059' action='modify' visible='true' lat='35.18137238878' lon='126.90516951704' />
  <node id='-102060' action='modify' visible='true' lat='35.18136561997' lon='126.90516062296' />
  <node id='-102061' action='modify' visible='true' lat='35.18135856428' lon='126.90515110918' />
  <node id='-102062' action='modify' visible='true' lat='35.18135688536' lon='126.90514905895' />
  <node id='-102063' action='modify' visible='true' lat='35.18135611342' lon='126.90514808298' />
  <node id='-102151' action='modify' visible='true' lat='35.18071838127' lon='126.90577369351' />
  <node id='-102152' action='modify' visible='true' lat='35.18071891398' lon='126.90577323716' />
  <node id='-102153' action='modify' visible='true' lat='35.180720802' lon='126.90577153424' />
  <node id='-102154' action='modify' visible='true' lat='35.18072318995' lon='126.90576936553' />
  <node id='-102155' action='modify' visible='true' lat='35.18072622537' lon='126.90576655702' />
  <node id='-102156' action='modify' visible='true' lat='35.18072917312' lon='126.90576391061' />
  <node id='-102157' action='modify' visible='true' lat='35.18073305022' lon='126.90576031633' />
  <node id='-102158' action='modify' visible='true' lat='35.18073810437' lon='126.90575586258' />
  <node id='-102159' action='modify' visible='true' lat='35.18074351553' lon='126.90575120821' />
  <node id='-102160' action='modify' visible='true' lat='35.18075157488' lon='126.90574397612' />
  <node id='-102161' action='modify' visible='true' lat='35.18075917238' lon='126.90573683013' />
  <node id='-102162' action='modify' visible='true' lat='35.18076700105' lon='126.90572900292' />
  <node id='-102163' action='modify' visible='true' lat='35.18077455738' lon='126.90572142367' />
  <node id='-102164' action='modify' visible='true' lat='35.18078251917' lon='126.90571316621' />
  <node id='-102165' action='modify' visible='true' lat='35.1807895637' lon='126.90570523727' />
  <node id='-102166' action='modify' visible='true' lat='35.18079764545' lon='126.90569689095' />
  <node id='-102167' action='modify' visible='true' lat='35.18080527649' lon='126.90568841441' />
  <node id='-102168' action='modify' visible='true' lat='35.18081244669' lon='126.90568135238' />
  <node id='-102169' action='modify' visible='true' lat='35.18082031472' lon='126.90567384782' />
  <node id='-102170' action='modify' visible='true' lat='35.18082797862' lon='126.90566695895' />
  <node id='-102171' action='modify' visible='true' lat='35.1808362971' lon='126.90565941943' />
  <node id='-102172' action='modify' visible='true' lat='35.18084415476' lon='126.90565144145' />
  <node id='-102173' action='modify' visible='true' lat='35.18085293311' lon='126.90564226214' />
  <node id='-102174' action='modify' visible='true' lat='35.18086023575' lon='126.90563524414' />
  <node id='-102175' action='modify' visible='true' lat='35.18086798883' lon='126.90562814089' />
  <node id='-102176' action='modify' visible='true' lat='35.18087578645' lon='126.90562131805' />
  <node id='-102177' action='modify' visible='true' lat='35.18088418593' lon='126.90561380325' />
  <node id='-102178' action='modify' visible='true' lat='35.18089162183' lon='126.90560665631' />
  <node id='-102179' action='modify' visible='true' lat='35.18089936533' lon='126.9055987703' />
  <node id='-102180' action='modify' visible='true' lat='35.18090728468' lon='126.90559084172' />
  <node id='-102181' action='modify' visible='true' lat='35.18091517691' lon='126.90558299734' />
  <node id='-102182' action='modify' visible='true' lat='35.18092291018' lon='126.90557546065' />
  <node id='-102183' action='modify' visible='true' lat='35.18093124251' lon='126.90556748395' />
  <node id='-102184' action='modify' visible='true' lat='35.18094052685' lon='126.90555877729' />
  <node id='-102185' action='modify' visible='true' lat='35.18094931116' lon='126.90555062923' />
  <node id='-102186' action='modify' visible='true' lat='35.18095818525' lon='126.9055423035' />
  <node id='-102187' action='modify' visible='true' lat='35.18096540136' lon='126.90553440302' />
  <node id='-102188' action='modify' visible='true' lat='35.18097295324' lon='126.90552595278' />
  <node id='-102189' action='modify' visible='true' lat='35.18098197332' lon='126.90551670137' />
  <node id='-102190' action='modify' visible='true' lat='35.18099038516' lon='126.90550840299' />
  <node id='-102191' action='modify' visible='true' lat='35.18099769853' lon='126.90550136144' />
  <node id='-102192' action='modify' visible='true' lat='35.18100595701' lon='126.90549350941' />
  <node id='-102193' action='modify' visible='true' lat='35.18101425152' lon='126.90548573622' />
  <node id='-102194' action='modify' visible='true' lat='35.18102333934' lon='126.90547731507' />
  <node id='-102195' action='modify' visible='true' lat='35.18103192216' lon='126.90546892464' />
  <node id='-102196' action='modify' visible='true' lat='35.18104092769' lon='126.90546036669' />
  <node id='-102197' action='modify' visible='true' lat='35.18104967626' lon='126.90545179321' />
  <node id='-102198' action='modify' visible='true' lat='35.18105849798' lon='126.90544294755' />
  <node id='-102199' action='modify' visible='true' lat='35.18106734263' lon='126.905434151' />
  <node id='-102200' action='modify' visible='true' lat='35.18107517035' lon='126.9054266219' />
  <node id='-102201' action='modify' visible='true' lat='35.18108262071' lon='126.90541921403' />
  <node id='-102202' action='modify' visible='true' lat='35.18109122852' lon='126.90541101174' />
  <node id='-102203' action='modify' visible='true' lat='35.1810998505' lon='126.90540259976' />
  <node id='-102204' action='modify' visible='true' lat='35.18110805944' lon='126.90539487391' />
  <node id='-102205' action='modify' visible='true' lat='35.18111556159' lon='126.90538787134' />
  <node id='-102206' action='modify' visible='true' lat='35.18112398524' lon='126.90537987877' />
  <node id='-102207' action='modify' visible='true' lat='35.18113236627' lon='126.9053719666' />
  <node id='-102208' action='modify' visible='true' lat='35.18114225299' lon='126.90536249357' />
  <node id='-102209' action='modify' visible='true' lat='35.18114956477' lon='126.9053552453' />
  <node id='-102210' action='modify' visible='true' lat='35.18115658048' lon='126.90534800719' />
  <node id='-102211' action='modify' visible='true' lat='35.18116360908' lon='126.90534060724' />
  <node id='-102212' action='modify' visible='true' lat='35.18117195277' lon='126.90533192079' />
  <node id='-102213' action='modify' visible='true' lat='35.18117925882' lon='126.90532442473' />
  <node id='-102214' action='modify' visible='true' lat='35.18118700461' lon='126.90531668869' />
  <node id='-102215' action='modify' visible='true' lat='35.18119409655' lon='126.90530967799' />
  <node id='-102216' action='modify' visible='true' lat='35.181202383' lon='126.90530153898' />
  <node id='-102217' action='modify' visible='true' lat='35.18121139608' lon='126.9052927945' />
  <node id='-102218' action='modify' visible='true' lat='35.18121853751' lon='126.90528554375' />
  <node id='-102219' action='modify' visible='true' lat='35.18122735715' lon='126.90527646348' />
  <node id='-102220' action='modify' visible='true' lat='35.18123567954' lon='126.90526794116' />
  <node id='-102221' action='modify' visible='true' lat='35.1812440416' lon='126.90525948158' />
  <node id='-102222' action='modify' visible='true' lat='35.18125311274' lon='126.90525058647' />
  <node id='-102223' action='modify' visible='true' lat='35.18126224396' lon='126.90524172885' />
  <node id='-102224' action='modify' visible='true' lat='35.18127078117' lon='126.90523354954' />
  <node id='-102225' action='modify' visible='true' lat='35.18127991206' lon='126.905225099' />
  <node id='-102226' action='modify' visible='true' lat='35.18128741308' lon='126.90521697009' />
  <node id='-102227' action='modify' visible='true' lat='35.18129497746' lon='126.90520864784' />
  <node id='-102228' action='modify' visible='true' lat='35.18130238131' lon='126.90520180036' />
  <node id='-102229' action='modify' visible='true' lat='35.18131009318' lon='126.90519480721' />
  <node id='-102230' action='modify' visible='true' lat='35.1813176446' lon='126.90518736547' />
  <node id='-102231' action='modify' visible='true' lat='35.18132544503' lon='126.90517951249' />
  <node id='-102232' action='modify' visible='true' lat='35.18133292436' lon='126.90517178418' />
  <node id='-102233' action='modify' visible='true' lat='35.18133988047' lon='126.90516407552' />
  <node id='-102234' action='modify' visible='true' lat='35.18134738767' lon='126.90515557267' />
  <node id='-102235' action='modify' visible='true' lat='35.18135485327' lon='126.90514768746' />
  <node id='-102236' action='modify' visible='true' lat='35.18136232' lon='126.90514008178' />
  <node id='-102237' action='modify' visible='true' lat='35.18137029801' lon='126.90513209262' />
  <node id='-102238' action='modify' visible='true' lat='35.18137850723' lon='126.90512401447' />
  <node id='-102239' action='modify' visible='true' lat='35.18138681606' lon='126.90511598169' />
  <node id='-102240' action='modify' visible='true' lat='35.18139513492' lon='126.90510764136' />
  <node id='-102241' action='modify' visible='true' lat='35.18140305946' lon='126.90509979795' />
  <node id='-102242' action='modify' visible='true' lat='35.1814109062' lon='126.90509213714' />
  <node id='-102243' action='modify' visible='true' lat='35.18141642851' lon='126.90508552073' />
  <node id='-102244' action='modify' visible='true' lat='35.18142174982' lon='126.90507941847' />
  <node id='-102245' action='modify' visible='true' lat='35.18142777716' lon='126.90507274245' />
  <node id='-102246' action='modify' visible='true' lat='35.1814354236' lon='126.90506500242' />
  <node id='-102247' action='modify' visible='true' lat='35.18144163819' lon='126.90505854999' />
  <node id='-102248' action='modify' visible='true' lat='35.18144810637' lon='126.90505172039' />
  <node id='-102249' action='modify' visible='true' lat='35.18145439363' lon='126.90504538951' />
  <node id='-102250' action='modify' visible='true' lat='35.18146025524' lon='126.90503988082' />
  <node id='-102251' action='modify' visible='true' lat='35.18146639071' lon='126.90503388481' />
  <node id='-102287' action='modify' visible='true' lat='35.18132582058' lon='126.90474715688' />
  <node id='-102288' action='modify' visible='true' lat='35.18132357704' lon='126.90474918371' />
  <node id='-102289' action='modify' visible='true' lat='35.1813209209' lon='126.90475151455' />
  <node id='-102290' action='modify' visible='true' lat='35.18131815576' lon='126.90475398097' />
  <node id='-102291' action='modify' visible='true' lat='35.18131481563' lon='126.90475667434' />
  <node id='-102292' action='modify' visible='true' lat='35.1813123886' lon='126.90475870788' />
  <node id='-102293' action='modify' visible='true' lat='35.18130998335' lon='126.90476085391' />
  <node id='-102294' action='modify' visible='true' lat='35.18130858122' lon='126.90476224312' />
  <node id='-102295' action='modify' visible='true' lat='35.1813025705' lon='126.90475323565' />
  <node id='-102296' action='modify' visible='true' lat='35.1812970338' lon='126.90474421886' />
  <node id='-102297' action='modify' visible='true' lat='35.18129171385' lon='126.9047349216' />
  <node id='-102298' action='modify' visible='true' lat='35.18128625232' lon='126.9047253645' />
  <node id='-102299' action='modify' visible='true' lat='35.18128059153' lon='126.90471558026' />
  <node id='-102300' action='modify' visible='true' lat='35.18127479238' lon='126.904706688' />
  <node id='-102301' action='modify' visible='true' lat='35.18126847108' lon='126.90469730465' />
  <node id='-102302' action='modify' visible='true' lat='35.18126194085' lon='126.90468732668' />
  <node id='-102303' action='modify' visible='true' lat='35.18125578603' lon='126.90467727746' />
  <node id='-102304' action='modify' visible='true' lat='35.18124975204' lon='126.90466779136' />
  <node id='-102305' action='modify' visible='true' lat='35.18124418701' lon='126.90465914915' />
  <node id='-102306' action='modify' visible='true' lat='35.18123809578' lon='126.9046497943' />
  <node id='-102307' action='modify' visible='true' lat='35.18123200558' lon='126.90464047829' />
  <node id='-102308' action='modify' visible='true' lat='35.18122628243' lon='126.90463125238' />
  <node id='-102309' action='modify' visible='true' lat='35.18122076439' lon='126.90462235304' />
  <node id='-102310' action='modify' visible='true' lat='35.18121466499' lon='126.90461232678' />
  <node id='-102311' action='modify' visible='true' lat='35.18120881192' lon='126.90460284342' />
  <node id='-102312' action='modify' visible='true' lat='35.18120262297' lon='126.9045932824' />
  <node id='-102313' action='modify' visible='true' lat='35.18119611285' lon='126.90458339336' />
  <node id='-102314' action='modify' visible='true' lat='35.1811894343' lon='126.90457341415' />
  <node id='-102315' action='modify' visible='true' lat='35.18118287866' lon='126.90456336719' />
  <node id='-102316' action='modify' visible='true' lat='35.18117641821' lon='126.90455325647' />
  <node id='-102317' action='modify' visible='true' lat='35.18117005049' lon='126.90454326249' />
  <node id='-102318' action='modify' visible='true' lat='35.18116372374' lon='126.90453336624' />
  <node id='-102319' action='modify' visible='true' lat='35.18115742152' lon='126.90452332543' />
  <node id='-102320' action='modify' visible='true' lat='35.18115099552' lon='126.90451306362' />
  <node id='-102321' action='modify' visible='true' lat='35.1811449346' lon='126.90450301586' />
  <node id='-102322' action='modify' visible='true' lat='35.18113933568' lon='126.90449366841' />
  <node id='-102323' action='modify' visible='true' lat='35.18113363565' lon='126.90448396258' />
  <node id='-102324' action='modify' visible='true' lat='35.18112773531' lon='126.90447432731' />
  <node id='-102325' action='modify' visible='true' lat='35.18112152334' lon='126.90446494325' />
  <node id='-102326' action='modify' visible='true' lat='35.18111516823' lon='126.90445524443' />
  <node id='-102327' action='modify' visible='true' lat='35.18110869851' lon='126.90444520316' />
  <node id='-102328' action='modify' visible='true' lat='35.18110306665' lon='126.90443625709' />
  <node id='-102329' action='modify' visible='true' lat='35.18109757483' lon='126.90442751853' />
  <node id='-102330' action='modify' visible='true' lat='35.1810919663' lon='126.90441837441' />
  <node id='-102331' action='modify' visible='true' lat='35.18108638327' lon='126.90440950006' />
  <node id='-102332' action='modify' visible='true' lat='35.18108074973' lon='126.90440056861' />
  <node id='-102333' action='modify' visible='true' lat='35.1810744735' lon='126.90439042101' />
  <node id='-102334' action='modify' visible='true' lat='35.18106880885' lon='126.90438158754' />
  <node id='-102335' action='modify' visible='true' lat='35.18106318878' lon='126.90437280253' />
  <node id='-102336' action='modify' visible='true' lat='35.18105759892' lon='126.90436407797' />
  <node id='-102337' action='modify' visible='true' lat='35.18105062756' lon='126.90435372179' />
  <node id='-102338' action='modify' visible='true' lat='35.18104209118' lon='126.90434095289' />
  <node id='-102339' action='modify' visible='true' lat='35.18103640001' lon='126.90433240394' />
  <node id='-102340' action='modify' visible='true' lat='35.18103074844' lon='126.90432367888' />
  <node id='-102341' action='modify' visible='true' lat='35.18102509425' lon='126.90431474688' />
  <node id='-102342' action='modify' visible='true' lat='35.18101934872' lon='126.90430567574' />
  <node id='-102343' action='modify' visible='true' lat='35.18101369052' lon='126.90429639276' />
  <node id='-102344' action='modify' visible='true' lat='35.1810080742' lon='126.90428688292' />
  <node id='-102345' action='modify' visible='true' lat='35.18100194879' lon='126.90427661184' />
  <node id='-102346' action='modify' visible='true' lat='35.18099611622' lon='126.90426745112' />
  <node id='-102347' action='modify' visible='true' lat='35.18099023986' lon='126.90425809801' />
  <node id='-102348' action='modify' visible='true' lat='35.18098420027' lon='126.90424836993' />
  <node id='-102349' action='modify' visible='true' lat='35.18097830856' lon='126.90423868196' />
  <node id='-102350' action='modify' visible='true' lat='35.18097237185' lon='126.90422927092' />
  <node id='-102351' action='modify' visible='true' lat='35.18096620583' lon='126.90421952691' />
  <node id='-102352' action='modify' visible='true' lat='35.18096048423' lon='126.90421087663' />
  <node id='-102353' action='modify' visible='true' lat='35.1809547344' lon='126.90420206213' />
  <node id='-102354' action='modify' visible='true' lat='35.18094908911' lon='126.9041931879' />
  <node id='-102355' action='modify' visible='true' lat='35.18094327756' lon='126.90418384009' />
  <node id='-102356' action='modify' visible='true' lat='35.18093687929' lon='126.90417425996' />
  <node id='-102357' action='modify' visible='true' lat='35.180929847' lon='126.90416456007' />
  <node id='-102358' action='modify' visible='true' lat='35.18092307951' lon='126.90415506868' />
  <node id='-102359' action='modify' visible='true' lat='35.18091663971' lon='126.90414616886' />
  <node id='-102360' action='modify' visible='true' lat='35.18091031786' lon='126.90413722489' />
  <node id='-102361' action='modify' visible='true' lat='35.18090405355' lon='126.9041281366' />
  <node id='-102362' action='modify' visible='true' lat='35.18089796562' lon='126.90411913284' />
  <node id='-102363' action='modify' visible='true' lat='35.18089256309' lon='126.90411214215' />
  <node id='-102364' action='modify' visible='true' lat='35.18088478649' lon='126.9041052158' />
  <node id='-102365' action='modify' visible='true' lat='35.18087741629' lon='126.90409677585' />
  <node id='-102366' action='modify' visible='true' lat='35.18087000613' lon='126.90408811015' />
  <node id='-102367' action='modify' visible='true' lat='35.18086225063' lon='126.90407975666' />
  <node id='-102368' action='modify' visible='true' lat='35.18085357206' lon='126.90407256839' />
  <node id='-102369' action='modify' visible='true' lat='35.18084591863' lon='126.90406661016' />
  <node id='-102370' action='modify' visible='true' lat='35.18083766153' lon='126.90406034716' />
  <node id='-102371' action='modify' visible='true' lat='35.18082894991' lon='126.90405368358' />
  <node id='-102372' action='modify' visible='true' lat='35.18082025075' lon='126.90404709374' />
  <node id='-102373' action='modify' visible='true' lat='35.18081172611' lon='126.90404047621' />
  <node id='-102374' action='modify' visible='true' lat='35.18080331766' lon='126.90403401244' />
  <node id='-102375' action='modify' visible='true' lat='35.18079485532' lon='126.90402768' />
  <node id='-102376' action='modify' visible='true' lat='35.18078599347' lon='126.90402139886' />
  <node id='-102377' action='modify' visible='true' lat='35.18077711943' lon='126.90401526992' />
  <node id='-102378' action='modify' visible='true' lat='35.18076804111' lon='126.90400908113' />
  <node id='-102379' action='modify' visible='true' lat='35.18075857932' lon='126.90400312302' />
  <node id='-102380' action='modify' visible='true' lat='35.18074895258' lon='126.90399736368' />
  <node id='-102381' action='modify' visible='true' lat='35.18073975969' lon='126.90399170628' />
  <node id='-102382' action='modify' visible='true' lat='35.18073049002' lon='126.90398590661' />
  <node id='-102383' action='modify' visible='true' lat='35.18072097461' lon='126.90397977748' />
  <node id='-102384' action='modify' visible='true' lat='35.18071161766' lon='126.90397367041' />
  <node id='-102385' action='modify' visible='true' lat='35.1807022849' lon='126.90396823527' />
  <node id='-102386' action='modify' visible='true' lat='35.18069404844' lon='126.90396367119' />
  <node id='-102387' action='modify' visible='true' lat='35.18068566015' lon='126.90395926383' />
  <node id='-102388' action='modify' visible='true' lat='35.18067669263' lon='126.90395416965' />
  <node id='-102389' action='modify' visible='true' lat='35.18067044397' lon='126.90395024052' />
  <node id='-102390' action='modify' visible='true' lat='35.18066466775' lon='126.90394623518' />
  <node id='-102391' action='modify' visible='true' lat='35.18065862678' lon='126.90394166714' />
  <node id='-102392' action='modify' visible='true' lat='35.18065409849' lon='126.90393775996' />
  <node id='-102393' action='modify' visible='true' lat='35.18065028235' lon='126.90393488097' />
  <node id='-102394' action='modify' visible='true' lat='35.18064627963' lon='126.90393159187' />
  <node id='-102395' action='modify' visible='true' lat='35.18064330936' lon='126.90392895538' />
  <node id='-102405' action='modify' visible='true' lat='35.18063777118' lon='126.90392531129' />
  <node id='-102406' action='modify' visible='true' lat='35.18062891287' lon='126.90392125495' />
  <node id='-102407' action='modify' visible='true' lat='35.18062471233' lon='126.90391983916' />
  <node id='-102408' action='modify' visible='true' lat='35.1806230869' lon='126.90391928555' />
  <node id='-102409' action='modify' visible='true' lat='35.18062174059' lon='126.90392361482' />
  <node id='-102410' action='modify' visible='true' lat='35.18061993462' lon='126.90392885853' />
  <node id='-102411' action='modify' visible='true' lat='35.18061840183' lon='126.90393388553' />
  <node id='-102412' action='modify' visible='true' lat='35.18061662998' lon='126.90393951687' />
  <node id='-102413' action='modify' visible='true' lat='35.18061499041' lon='126.90394494405' />
  <node id='-102414' action='modify' visible='true' lat='35.18061191958' lon='126.9039553824' />
  <node id='-102415' action='modify' visible='true' lat='35.18060781899' lon='126.90396767582' />
  <node id='-102416' action='modify' visible='true' lat='35.18060387335' lon='126.90397857537' />
  <node id='-102417' action='modify' visible='true' lat='35.18060034766' lon='126.90398787305' />
  <node id='-102418' action='modify' visible='true' lat='35.18059551357' lon='126.90399801705' />
  <node id='-102419' action='modify' visible='true' lat='35.18059074786' lon='126.90400847278' />
  <node id='-102420' action='modify' visible='true' lat='35.1805859464' lon='126.90401895657' />
  <node id='-102421' action='modify' visible='true' lat='35.18058114733' lon='126.90402966867' />
  <node id='-102422' action='modify' visible='true' lat='35.18057627235' lon='126.90404030447' />
  <node id='-102423' action='modify' visible='true' lat='35.18057123713' lon='126.90405095049' />
  <node id='-102424' action='modify' visible='true' lat='35.18056612322' lon='126.90406175' />
  <node id='-102425' action='modify' visible='true' lat='35.18056091855' lon='126.90407233579' />
  <node id='-102426' action='modify' visible='true' lat='35.18055533219' lon='126.90408354603' />
  <node id='-102427' action='modify' visible='true' lat='35.18054975951' lon='126.90409463201' />
  <node id='-102428' action='modify' visible='true' lat='35.18054414397' lon='126.90410548989' />
  <node id='-102429' action='modify' visible='true' lat='35.18053867703' lon='126.90411639865' />
  <node id='-102430' action='modify' visible='true' lat='35.18053317484' lon='126.90412739846' />
  <node id='-102431' action='modify' visible='true' lat='35.18052758615' lon='126.90413834972' />
  <node id='-102432' action='modify' visible='true' lat='35.18052195685' lon='126.90414908212' />
  <node id='-102433' action='modify' visible='true' lat='35.18051589861' lon='126.90416027187' />
  <node id='-102434' action='modify' visible='true' lat='35.18050990991' lon='126.90417121439' />
  <node id='-102435' action='modify' visible='true' lat='35.18050469476' lon='126.90418066605' />
  <node id='-102436' action='modify' visible='true' lat='35.18049842581' lon='126.90419167473' />
  <node id='-102437' action='modify' visible='true' lat='35.1804926052' lon='126.90420241446' />
  <node id='-102438' action='modify' visible='true' lat='35.18048689911' lon='126.90421263043' />
  <node id='-102439' action='modify' visible='true' lat='35.18048099806' lon='126.90422304534' />
  <node id='-102440' action='modify' visible='true' lat='35.18047464474' lon='126.90423408575' />
  <node id='-102441' action='modify' visible='true' lat='35.18046836725' lon='126.90424492006' />
  <node id='-102442' action='modify' visible='true' lat='35.18046212262' lon='126.90425530634' />
  <node id='-102443' action='modify' visible='true' lat='35.18045610943' lon='126.904265177' />
  <node id='-102444' action='modify' visible='true' lat='35.18045039723' lon='126.90427436982' />
  <node id='-102445' action='modify' visible='true' lat='35.18044448814' lon='126.90428381433' />
  <node id='-102446' action='modify' visible='true' lat='35.18043863653' lon='126.90429293064' />
  <node id='-102447' action='modify' visible='true' lat='35.18043273752' lon='126.90430203928' />
  <node id='-102448' action='modify' visible='true' lat='35.18042664738' lon='126.90431133203' />
  <node id='-102449' action='modify' visible='true' lat='35.18042045844' lon='126.90432061432' />
  <node id='-102450' action='modify' visible='true' lat='35.18041447225' lon='126.90432956075' />
  <node id='-102451' action='modify' visible='true' lat='35.18040815798' lon='126.90433875043' />
  <node id='-102452' action='modify' visible='true' lat='35.18040177337' lon='126.90434810401' />
  <node id='-102453' action='modify' visible='true' lat='35.18039493461' lon='126.90435783626' />
  <node id='-102454' action='modify' visible='true' lat='35.18038808764' lon='126.90436746451' />
  <node id='-102455' action='modify' visible='true' lat='35.18038130161' lon='126.90437680954' />
  <node id='-102456' action='modify' visible='true' lat='35.18037437622' lon='126.90438620951' />
  <node id='-102457' action='modify' visible='true' lat='35.18036709305' lon='126.90439573594' />
  <node id='-102458' action='modify' visible='true' lat='35.18035913861' lon='126.90440428781' />
  <node id='-102459' action='modify' visible='true' lat='35.18035087243' lon='126.90441229277' />
  <node id='-102460' action='modify' visible='true' lat='35.18034241599' lon='126.90442010944' />
  <node id='-102461' action='modify' visible='true' lat='35.18033767824' lon='126.90442465713' />
  <node id='-102462' action='modify' visible='true' lat='35.18033357882' lon='126.90442816737' />
  <node id='-102463' action='modify' visible='true' lat='35.18033023198' lon='126.9044312427' />
  <node id='-102464' action='modify' visible='true' lat='35.18032700011' lon='126.90443468856' />
  <node id='-102465' action='modify' visible='true' lat='35.18032556652' lon='126.90443622194' />
  <node id='-102466' action='modify' visible='true' lat='35.18032263415' lon='126.90443957649' />
  <node id='-102502' action='modify' visible='true' lat='35.18013570932' lon='126.90413313972' />
  <node id='-102503' action='modify' visible='true' lat='35.18013546638' lon='126.90413312158' />
  <node id='-102504' action='modify' visible='true' lat='35.18013529988' lon='126.90413305892' />
  <node id='-102505' action='modify' visible='true' lat='35.18013520832' lon='126.9041329847' />
  <node id='-102506' action='modify' visible='true' lat='35.18013507994' lon='126.90413283034' />
  <node id='-102507' action='modify' visible='true' lat='35.18013508582' lon='126.90413261514' />
  <node id='-102508' action='modify' visible='true' lat='35.18013517338' lon='126.9041321384' />
  <node id='-102509' action='modify' visible='true' lat='35.18014008745' lon='126.90414138501' />
  <node id='-102510' action='modify' visible='true' lat='35.18014558492' lon='126.9041516716' />
  <node id='-102511' action='modify' visible='true' lat='35.18015054485' lon='126.90416116962' />
  <node id='-102512' action='modify' visible='true' lat='35.1801564211' lon='126.9041724335' />
  <node id='-102513' action='modify' visible='true' lat='35.18016257785' lon='126.90418329544' />
  <node id='-102514' action='modify' visible='true' lat='35.18016899555' lon='126.90419448846' />
  <node id='-102515' action='modify' visible='true' lat='35.18017556697' lon='126.90420539974' />
  <node id='-102516' action='modify' visible='true' lat='35.18018213968' lon='126.90421640531' />
  <node id='-102517' action='modify' visible='true' lat='35.18018857182' lon='126.90422753103' />
  <node id='-102518' action='modify' visible='true' lat='35.18019489333' lon='126.90423867383' />
  <node id='-102519' action='modify' visible='true' lat='35.18020106952' lon='126.90424972385' />
  <node id='-102520' action='modify' visible='true' lat='35.18020764849' lon='126.90426083625' />
  <node id='-102521' action='modify' visible='true' lat='35.18021455157' lon='126.90427172076' />
  <node id='-102522' action='modify' visible='true' lat='35.18022154142' lon='126.90428285135' />
  <node id='-102523' action='modify' visible='true' lat='35.18022839172' lon='126.90429463066' />
  <node id='-102524' action='modify' visible='true' lat='35.18023480353' lon='126.90430708187' />
  <node id='-102525' action='modify' visible='true' lat='35.18024056623' lon='126.90431707023' />
  <node id='-102526' action='modify' visible='true' lat='35.18024696434' lon='126.90432732006' />
  <node id='-102527' action='modify' visible='true' lat='35.18025387877' lon='126.90433712294' />
  <node id='-102528' action='modify' visible='true' lat='35.18026136031' lon='126.90434623847' />
  <node id='-102529' action='modify' visible='true' lat='35.18026857577' lon='126.90435567005' />
  <node id='-102530' action='modify' visible='true' lat='35.1802752622' lon='126.90436617' />
  <node id='-102531' action='modify' visible='true' lat='35.18028198756' lon='126.90437648809' />
  <node id='-102532' action='modify' visible='true' lat='35.18028886671' lon='126.9043867637' />
  <node id='-102533' action='modify' visible='true' lat='35.18029587491' lon='126.90439734805' />
  <node id='-102534' action='modify' visible='true' lat='35.18030284069' lon='126.90440794397' />
  <node id='-102535' action='modify' visible='true' lat='35.18030963304' lon='126.90441865173' />
  <node id='-102536' action='modify' visible='true' lat='35.18031614465' lon='126.90442896368' />
  <node id='-102537' action='modify' visible='true' lat='35.1803219762' lon='126.90443836244' />
  <node id='-102622' action='modify' visible='true' lat='35.18083121382' lon='126.90406667802' />
  <node id='-102623' action='modify' visible='true' lat='35.18083875102' lon='126.9040778365' />
  <node id='-102624' action='modify' visible='true' lat='35.18084282455' lon='126.90408361447' />
  <node id='-102625' action='modify' visible='true' lat='35.18083899383' lon='126.90408838743' />
  <node id='-102626' action='modify' visible='true' lat='35.18083531205' lon='126.90409291661' />
  <node id='-102627' action='modify' visible='true' lat='35.18083083187' lon='126.90409998136' />
  <node id='-102628' action='modify' visible='true' lat='35.18082697004' lon='126.90410645223' />
  <node id='-102629' action='modify' visible='true' lat='35.18082386501' lon='126.90411108158' />
  <node id='-102630' action='modify' visible='true' lat='35.18083685533' lon='126.90413136941' />
  <node id='-102631' action='modify' visible='true' lat='35.18084625987' lon='126.90415033433' />
  <node id='-102632' action='modify' visible='true' lat='35.1808520059' lon='126.90416103651' />
  <node id='-102633' action='modify' visible='true' lat='35.18085758464' lon='126.90417030559' />
  <node id='-102634' action='modify' visible='true' lat='35.1808635024' lon='126.90417991882' />
  <node id='-102635' action='modify' visible='true' lat='35.18086931977' lon='126.90418940487' />
  <node id='-102636' action='modify' visible='true' lat='35.18087550847' lon='126.90419882207' />
  <node id='-102637' action='modify' visible='true' lat='35.1808811979' lon='126.90420763786' />
  <node id='-102638' action='modify' visible='true' lat='35.18088753708' lon='126.90421746195' />
  <node id='-102639' action='modify' visible='true' lat='35.18089342144' lon='126.90422670358' />
  <node id='-102640' action='modify' visible='true' lat='35.18089893913' lon='126.90423544789' />
  <node id='-102641' action='modify' visible='true' lat='35.18090519575' lon='126.90424436104' />
  <node id='-102642' action='modify' visible='true' lat='35.18091139176' lon='126.90425262944' />
  <node id='-102643' action='modify' visible='true' lat='35.18091780101' lon='126.9042610785' />
  <node id='-102644' action='modify' visible='true' lat='35.18092483034' lon='126.9042704701' />
  <node id='-102645' action='modify' visible='true' lat='35.18093240666' lon='126.90428021878' />
  <node id='-102646' action='modify' visible='true' lat='35.1809388874' lon='126.904288409' />
  <node id='-102647' action='modify' visible='true' lat='35.18095149927' lon='126.90430377974' />
  <node id='-102648' action='modify' visible='true' lat='35.18096255713' lon='126.90431783564' />
  <node id='-102649' action='modify' visible='true' lat='35.18097334291' lon='126.90432994643' />
  <node id='-102650' action='modify' visible='true' lat='35.18097980808' lon='126.90432428537' />
  <node id='-102651' action='modify' visible='true' lat='35.18098777727' lon='126.90431732861' />
  <node id='-102652' action='modify' visible='true' lat='35.18099381685' lon='126.90431126476' />
  <node id='-102653' action='modify' visible='true' lat='35.18099969199' lon='126.9043052836' />
  <node id='-102654' action='modify' visible='true' lat='35.18100672867' lon='126.90431394845' />
  <node id='-102655' action='modify' visible='true' lat='35.18101456521' lon='126.90432300203' />
  <node id='-102656' action='modify' visible='true' lat='35.18102115468' lon='126.90433176551' />
  <node id='-102702' action='modify' visible='true' lat='35.18130988702' lon='126.9047646499' />
  <node id='-102703' action='modify' visible='true' lat='35.18131665024' lon='126.90477484354' />
  <node id='-102704' action='modify' visible='true' lat='35.18132373186' lon='126.90478503527' />
  <node id='-102705' action='modify' visible='true' lat='35.18133100983' lon='126.90479585082' />
  <node id='-102706' action='modify' visible='true' lat='35.18133801871' lon='126.90480658905' />
  <node id='-102707' action='modify' visible='true' lat='35.18134467999' lon='126.90481694297' />
  <node id='-102708' action='modify' visible='true' lat='35.18135113385' lon='126.90482669388' />
  <node id='-102709' action='modify' visible='true' lat='35.18135741468' lon='126.90483616742' />
  <node id='-102710' action='modify' visible='true' lat='35.18136335264' lon='126.90484522419' />
  <node id='-102711' action='modify' visible='true' lat='35.18136978883' lon='126.90485516208' />
  <node id='-102712' action='modify' visible='true' lat='35.1813756791' lon='126.90486442394' />
  <node id='-102713' action='modify' visible='true' lat='35.18138203343' lon='126.90487459583' />
  <node id='-102714' action='modify' visible='true' lat='35.18138750002' lon='126.90488335696' />
  <node id='-102715' action='modify' visible='true' lat='35.18139315564' lon='126.90489256474' />
  <node id='-102716' action='modify' visible='true' lat='35.18139944044' lon='126.90490300813' />
  <node id='-102717' action='modify' visible='true' lat='35.1814048823' lon='126.90491217675' />
  <node id='-102718' action='modify' visible='true' lat='35.18141038506' lon='126.90492128746' />
  <node id='-102719' action='modify' visible='true' lat='35.18141662119' lon='126.9049317275' />
  <node id='-102720' action='modify' visible='true' lat='35.18142276047' lon='126.90494217962' />
  <node id='-102721' action='modify' visible='true' lat='35.18142874602' lon='126.9049525837' />
  <node id='-102722' action='modify' visible='true' lat='35.18143407508' lon='126.90496205086' />
  <node id='-102723' action='modify' visible='true' lat='35.18144085898' lon='126.90497410961' />
  <node id='-102724' action='modify' visible='true' lat='35.18144618519' lon='126.90498395195' />
  <node id='-102725' action='modify' visible='true' lat='35.18145268868' lon='126.90499611064' />
  <node id='-102726' action='modify' visible='true' lat='35.18145799944' lon='126.90500621346' />
  <node id='-102727' action='modify' visible='true' lat='35.18146438626' lon='126.90501868138' />
  <node id='-102728' action='modify' visible='true' lat='35.18146921132' lon='126.90502831652' />
  <node id='-102730' action='modify' visible='true' lat='35.18147026037' lon='126.90503037213' />
  <node id='-102737' action='modify' visible='true' lat='35.18149528804' lon='126.9053597077' />
  <node id='-102750' action='modify' visible='true' lat='35.1807173716' lon='126.90577471514' />
  <node id='-102752' action='modify' visible='true' lat='35.18135544295' lon='126.90514708681' />
  <way id='-101891' action='modify' visible='true'>
    <nd ref='-101825' />
    <nd ref='-101864' />
    <nd ref='-101865' />
    <nd ref='-101866' />
    <nd ref='-101867' />
    <nd ref='-101868' />
    <nd ref='-101869' />
    <nd ref='-101870' />
    <nd ref='-101871' />
    <nd ref='-101872' />
    <nd ref='-101873' />
    <nd ref='-101874' />
    <nd ref='-101875' />
    <nd ref='-101876' />
    <nd ref='-101877' />
    <nd ref='-101878' />
    <nd ref='-101879' />
    <nd ref='-101880' />
    <nd ref='-101881' />
    <nd ref='-101882' />
    <nd ref='-101883' />
    <nd ref='-101884' />
    <nd ref='-101885' />
    <nd ref='-101886' />
    <nd ref='-101887' />
    <nd ref='-101888' />
    <nd ref='-101889' />
    <nd ref='-101890' />
    <nd ref='-101891' />
    <nd ref='-101892' />
    <nd ref='-101893' />
    <nd ref='-101894' />
    <nd ref='-101895' />
    <nd ref='-101896' />
    <nd ref='-101897' />
    <nd ref='-101898' />
    <nd ref='-101899' />
    <nd ref='-101900' />
    <nd ref='-101901' />
    <nd ref='-101902' />
    <nd ref='-101903' />
    <nd ref='-101904' />
    <nd ref='-101905' />
    <nd ref='-101906' />
    <nd ref='-101907' />
    <nd ref='-101908' />
    <nd ref='-101909' />
    <nd ref='-101910' />
    <nd ref='-101911' />
    <nd ref='-101912' />
    <nd ref='-101913' />
    <nd ref='-101914' />
    <nd ref='-101915' />
    <nd ref='-101916' />
    <nd ref='-101917' />
    <nd ref='-101918' />
    <nd ref='-101919' />
    <nd ref='-101920' />
    <nd ref='-101921' />
    <nd ref='-101922' />
    <nd ref='-101923' />
    <nd ref='-101924' />
    <nd ref='-101925' />
    <nd ref='-101926' />
    <nd ref='-101927' />
    <nd ref='-101928' />
    <nd ref='-101929' />
    <nd ref='-101930' />
    <nd ref='-101931' />
    <nd ref='-101932' />
    <nd ref='-101933' />
    <nd ref='-101934' />
    <nd ref='-101935' />
  </way>
  <way id='-101956' action='modify' visible='true'>
    <nd ref='-101752' />
    <nd ref='-101753' />
    <nd ref='-101754' />
    <nd ref='-101755' />
    <nd ref='-101756' />
    <nd ref='-101757' />
    <nd ref='-101758' />
    <nd ref='-101759' />
    <nd ref='-101760' />
    <nd ref='-101761' />
    <nd ref='-101762' />
    <nd ref='-101763' />
    <nd ref='-101764' />
    <nd ref='-101765' />
    <nd ref='-101766' />
    <nd ref='-101767' />
    <nd ref='-101768' />
    <nd ref='-101769' />
    <nd ref='-101770' />
    <nd ref='-101771' />
    <nd ref='-101772' />
    <nd ref='-101773' />
    <nd ref='-101774' />
    <nd ref='-101775' />
    <nd ref='-101776' />
    <nd ref='-101777' />
    <nd ref='-101778' />
    <nd ref='-101779' />
    <nd ref='-101780' />
    <nd ref='-101781' />
    <nd ref='-101782' />
    <nd ref='-101783' />
    <nd ref='-101784' />
    <nd ref='-101785' />
    <nd ref='-101786' />
    <nd ref='-101787' />
    <nd ref='-101788' />
    <nd ref='-101789' />
    <nd ref='-101790' />
    <nd ref='-101791' />
    <nd ref='-101792' />
    <nd ref='-101793' />
    <nd ref='-101794' />
    <nd ref='-101795' />
    <nd ref='-101796' />
    <nd ref='-101797' />
    <nd ref='-101798' />
    <nd ref='-101799' />
    <nd ref='-101800' />
    <nd ref='-101801' />
    <nd ref='-101802' />
    <nd ref='-101803' />
    <nd ref='-101804' />
    <nd ref='-102750' />
    <nd ref='-101805' />
    <nd ref='-101806' />
    <nd ref='-101807' />
    <nd ref='-101808' />
    <nd ref='-101809' />
    <nd ref='-101810' />
    <nd ref='-101811' />
    <nd ref='-101812' />
    <nd ref='-101813' />
    <nd ref='-101814' />
    <nd ref='-101815' />
    <nd ref='-101816' />
    <nd ref='-101817' />
    <nd ref='-101818' />
    <nd ref='-101819' />
    <nd ref='-101820' />
    <nd ref='-101821' />
    <nd ref='-101822' />
    <nd ref='-101823' />
    <nd ref='-101824' />
    <nd ref='-101825' />
    <nd ref='-101826' />
    <nd ref='-101827' />
    <nd ref='-101828' />
    <nd ref='-101829' />
    <nd ref='-101830' />
    <nd ref='-101831' />
    <nd ref='-101832' />
    <nd ref='-101833' />
    <nd ref='-101834' />
    <nd ref='-101835' />
    <nd ref='-101836' />
    <nd ref='-101837' />
  </way>
  <way id='-102022' action='modify' visible='true'>
    <nd ref='-101935' />
    <nd ref='-101974' />
    <nd ref='-101975' />
    <nd ref='-101976' />
    <nd ref='-101977' />
    <nd ref='-101978' />
    <nd ref='-101979' />
    <nd ref='-101980' />
    <nd ref='-101981' />
    <nd ref='-101982' />
    <nd ref='-101983' />
    <nd ref='-101984' />
    <nd ref='-101985' />
    <nd ref='-101986' />
    <nd ref='-101987' />
    <nd ref='-101988' />
    <nd ref='-101989' />
    <nd ref='-101990' />
    <nd ref='-101991' />
    <nd ref='-101992' />
    <nd ref='-101993' />
    <nd ref='-102737' />
    <nd ref='-101994' />
    <nd ref='-101995' />
    <nd ref='-101996' />
    <nd ref='-101997' />
    <nd ref='-101998' />
    <nd ref='-101999' />
    <nd ref='-102000' />
    <nd ref='-102001' />
    <nd ref='-102002' />
    <nd ref='-102003' />
    <nd ref='-102004' />
    <nd ref='-102005' />
    <nd ref='-102006' />
    <nd ref='-102007' />
    <nd ref='-102008' />
    <nd ref='-102009' />
  </way>
  <way id='-102073' action='modify' visible='true'>
    <nd ref='-101934' />
    <nd ref='-101936' />
    <nd ref='-101937' />
    <nd ref='-101938' />
    <nd ref='-101939' />
    <nd ref='-101940' />
    <nd ref='-101941' />
    <nd ref='-101942' />
    <nd ref='-101943' />
    <nd ref='-101944' />
    <nd ref='-101945' />
    <nd ref='-101946' />
    <nd ref='-101947' />
    <nd ref='-101948' />
    <nd ref='-101949' />
    <nd ref='-101950' />
    <nd ref='-101951' />
    <nd ref='-101952' />
    <nd ref='-101953' />
  </way>
  <way id='-102139' action='modify' visible='true'>
    <nd ref='-102737' />
    <nd ref='-102039' />
    <nd ref='-102040' />
    <nd ref='-102041' />
    <nd ref='-102042' />
    <nd ref='-102043' />
    <nd ref='-102044' />
    <nd ref='-102045' />
    <nd ref='-102046' />
    <nd ref='-102047' />
    <nd ref='-102048' />
    <nd ref='-102049' />
    <nd ref='-102050' />
    <nd ref='-102051' />
    <nd ref='-102052' />
    <nd ref='-102053' />
    <nd ref='-102054' />
    <nd ref='-102055' />
    <nd ref='-102056' />
    <nd ref='-102057' />
    <nd ref='-102058' />
    <nd ref='-102059' />
    <nd ref='-102060' />
    <nd ref='-102061' />
    <nd ref='-102062' />
    <nd ref='-102063' />
    <nd ref='-102752' />
  </way>
  <way id='-102215' action='modify' visible='true'>
    <nd ref='-102656' />
    <nd ref='-102340' />
  </way>
  <way id='-102233' action='modify' visible='true'>
    <nd ref='-102622' />
    <nd ref='-102370' />
  </way>
  <way id='-102243' action='modify' visible='true'>
    <nd ref='-102750' />
    <nd ref='-102151' />
    <nd ref='-102152' />
    <nd ref='-102153' />
    <nd ref='-102154' />
    <nd ref='-102155' />
    <nd ref='-102156' />
    <nd ref='-102157' />
    <nd ref='-102158' />
    <nd ref='-102159' />
    <nd ref='-102160' />
    <nd ref='-102161' />
    <nd ref='-102162' />
    <nd ref='-102163' />
    <nd ref='-102164' />
    <nd ref='-102165' />
    <nd ref='-102166' />
    <nd ref='-102167' />
    <nd ref='-102168' />
    <nd ref='-102169' />
    <nd ref='-102170' />
    <nd ref='-102171' />
    <nd ref='-102172' />
    <nd ref='-102173' />
    <nd ref='-102174' />
    <nd ref='-102175' />
    <nd ref='-102176' />
    <nd ref='-102177' />
    <nd ref='-102178' />
    <nd ref='-102179' />
    <nd ref='-102180' />
    <nd ref='-102181' />
    <nd ref='-102182' />
    <nd ref='-102183' />
    <nd ref='-102184' />
    <nd ref='-102185' />
    <nd ref='-102186' />
    <nd ref='-102187' />
    <nd ref='-102188' />
    <nd ref='-102189' />
    <nd ref='-102190' />
    <nd ref='-102191' />
    <nd ref='-102192' />
    <nd ref='-102193' />
    <nd ref='-102194' />
    <nd ref='-102195' />
    <nd ref='-102196' />
    <nd ref='-102197' />
    <nd ref='-102198' />
    <nd ref='-102199' />
    <nd ref='-102200' />
    <nd ref='-102201' />
    <nd ref='-102202' />
    <nd ref='-102203' />
    <nd ref='-102204' />
    <nd ref='-102205' />
    <nd ref='-102206' />
    <nd ref='-102207' />
    <nd ref='-102208' />
    <nd ref='-102209' />
    <nd ref='-102210' />
    <nd ref='-102211' />
    <nd ref='-102212' />
    <nd ref='-102213' />
    <nd ref='-102214' />
    <nd ref='-102215' />
    <nd ref='-102216' />
    <nd ref='-102217' />
    <nd ref='-102218' />
    <nd ref='-102219' />
    <nd ref='-102220' />
    <nd ref='-102221' />
    <nd ref='-102222' />
    <nd ref='-102223' />
    <nd ref='-102224' />
    <nd ref='-102225' />
    <nd ref='-102226' />
    <nd ref='-102227' />
    <nd ref='-102228' />
    <nd ref='-102229' />
    <nd ref='-102230' />
    <nd ref='-102231' />
    <nd ref='-102232' />
    <nd ref='-102233' />
    <nd ref='-102234' />
    <nd ref='-102235' />
    <nd ref='-102752' />
    <nd ref='-102236' />
    <nd ref='-102237' />
    <nd ref='-102238' />
    <nd ref='-102239' />
    <nd ref='-102240' />
    <nd ref='-102241' />
    <nd ref='-102242' />
    <nd ref='-102243' />
    <nd ref='-102244' />
    <nd ref='-102245' />
    <nd ref='-102246' />
    <nd ref='-102247' />
    <nd ref='-102248' />
    <nd ref='-102249' />
    <nd ref='-102250' />
    <nd ref='-102251' />
    <nd ref='-102730' />
  </way>
  <way id='-102250' action='modify' visible='true'>
    <nd ref='-102287' />
    <nd ref='-102288' />
    <nd ref='-102289' />
    <nd ref='-102290' />
  </way>
  <way id='-102262' action='modify' visible='true'>
    <nd ref='-102292' />
    <nd ref='-102293' />
    <nd ref='-102294' />
    <nd ref='-102295' />
    <nd ref='-102296' />
    <nd ref='-102297' />
    <nd ref='-102298' />
    <nd ref='-102299' />
    <nd ref='-102300' />
    <nd ref='-102301' />
    <nd ref='-102302' />
    <nd ref='-102303' />
    <nd ref='-102304' />
    <nd ref='-102305' />
    <nd ref='-102306' />
    <nd ref='-102307' />
    <nd ref='-102308' />
    <nd ref='-102309' />
    <nd ref='-102310' />
    <nd ref='-102311' />
    <nd ref='-102312' />
    <nd ref='-102313' />
    <nd ref='-102314' />
    <nd ref='-102315' />
    <nd ref='-102316' />
    <nd ref='-102317' />
    <nd ref='-102318' />
    <nd ref='-102319' />
    <nd ref='-102320' />
    <nd ref='-102321' />
    <nd ref='-102322' />
    <nd ref='-102323' />
    <nd ref='-102324' />
    <nd ref='-102325' />
    <nd ref='-102326' />
    <nd ref='-102327' />
    <nd ref='-102328' />
    <nd ref='-102329' />
    <nd ref='-102330' />
    <nd ref='-102331' />
    <nd ref='-102332' />
    <nd ref='-102333' />
    <nd ref='-102334' />
    <nd ref='-102335' />
    <nd ref='-102336' />
    <nd ref='-102337' />
    <nd ref='-102338' />
    <nd ref='-102339' />
    <nd ref='-102340' />
    <nd ref='-102341' />
    <nd ref='-102342' />
    <nd ref='-102343' />
    <nd ref='-102344' />
    <nd ref='-102345' />
    <nd ref='-102346' />
    <nd ref='-102347' />
    <nd ref='-102348' />
    <nd ref='-102349' />
    <nd ref='-102350' />
    <nd ref='-102351' />
    <nd ref='-102352' />
    <nd ref='-102353' />
    <nd ref='-102354' />
    <nd ref='-102355' />
    <nd ref='-102356' />
    <nd ref='-102357' />
    <nd ref='-102358' />
    <nd ref='-102359' />
    <nd ref='-102360' />
    <nd ref='-102361' />
    <nd ref='-102362' />
    <nd ref='-102363' />
    <nd ref='-102364' />
    <nd ref='-102365' />
    <nd ref='-102366' />
    <nd ref='-102367' />
    <nd ref='-102368' />
    <nd ref='-102369' />
    <nd ref='-102370' />
    <nd ref='-102371' />
    <nd ref='-102372' />
    <nd ref='-102373' />
    <nd ref='-102374' />
    <nd ref='-102375' />
    <nd ref='-102376' />
    <nd ref='-102377' />
    <nd ref='-102378' />
    <nd ref='-102379' />
    <nd ref='-102380' />
    <nd ref='-102381' />
    <nd ref='-102382' />
    <nd ref='-102383' />
    <nd ref='-102384' />
    <nd ref='-102385' />
    <nd ref='-102386' />
    <nd ref='-102387' />
    <nd ref='-102388' />
    <nd ref='-102389' />
    <nd ref='-102390' />
    <nd ref='-102391' />
    <nd ref='-102392' />
    <nd ref='-102393' />
    <nd ref='-102394' />
    <nd ref='-102395' />
    <nd ref='-102405' />
  </way>
  <way id='-102273' action='modify' visible='true'>
    <nd ref='-102405' />
    <nd ref='-102406' />
    <nd ref='-102407' />
    <nd ref='-102408' />
    <nd ref='-102409' />
    <nd ref='-102410' />
    <nd ref='-102411' />
    <nd ref='-102412' />
    <nd ref='-102413' />
    <nd ref='-102414' />
    <nd ref='-102415' />
    <nd ref='-102416' />
    <nd ref='-102417' />
    <nd ref='-102418' />
    <nd ref='-102419' />
    <nd ref='-102420' />
    <nd ref='-102421' />
    <nd ref='-102422' />
    <nd ref='-102423' />
    <nd ref='-102424' />
    <nd ref='-102425' />
    <nd ref='-102426' />
    <nd ref='-102427' />
    <nd ref='-102428' />
    <nd ref='-102429' />
    <nd ref='-102430' />
    <nd ref='-102431' />
    <nd ref='-102432' />
    <nd ref='-102433' />
    <nd ref='-102434' />
    <nd ref='-102435' />
    <nd ref='-102436' />
    <nd ref='-102437' />
    <nd ref='-102438' />
    <nd ref='-102439' />
    <nd ref='-102440' />
    <nd ref='-102441' />
    <nd ref='-102442' />
    <nd ref='-102443' />
    <nd ref='-102444' />
    <nd ref='-102445' />
    <nd ref='-102446' />
    <nd ref='-102447' />
    <nd ref='-102448' />
    <nd ref='-102449' />
    <nd ref='-102450' />
    <nd ref='-102451' />
    <nd ref='-102452' />
    <nd ref='-102453' />
    <nd ref='-102454' />
    <nd ref='-102455' />
    <nd ref='-102456' />
    <nd ref='-102457' />
    <nd ref='-102458' />
    <nd ref='-102459' />
    <nd ref='-102460' />
    <nd ref='-102461' />
    <nd ref='-102462' />
    <nd ref='-102463' />
    <nd ref='-102464' />
    <nd ref='-102465' />
  </way>
  <way id='-102278' action='modify' visible='true'>
    <nd ref='-102465' />
    <nd ref='-102466' />
  </way>
  <way id='-102382' action='modify' visible='true'>
    <nd ref='-102502' />
    <nd ref='-102503' />
    <nd ref='-102504' />
    <nd ref='-102505' />
    <nd ref='-102506' />
    <nd ref='-102507' />
    <nd ref='-102508' />
    <nd ref='-102509' />
    <nd ref='-102510' />
    <nd ref='-102511' />
    <nd ref='-102512' />
    <nd ref='-102513' />
    <nd ref='-102514' />
    <nd ref='-102515' />
    <nd ref='-102516' />
    <nd ref='-102517' />
    <nd ref='-102518' />
    <nd ref='-102519' />
    <nd ref='-102520' />
    <nd ref='-102521' />
    <nd ref='-102522' />
    <nd ref='-102523' />
    <nd ref='-102524' />
    <nd ref='-102525' />
    <nd ref='-102526' />
    <nd ref='-102527' />
    <nd ref='-102528' />
    <nd ref='-102529' />
    <nd ref='-102530' />
    <nd ref='-102531' />
    <nd ref='-102532' />
    <nd ref='-102533' />
    <nd ref='-102534' />
    <nd ref='-102535' />
    <nd ref='-102536' />
    <nd ref='-102537' />
    <nd ref='-102466' />
  </way>
  <way id='-102586' action='modify' visible='true'>
    <nd ref='-102624' />
    <nd ref='-102368' />
  </way>
  <way id='-102638' action='modify' visible='true'>
    <nd ref='-102653' />
    <nd ref='-102343' />
  </way>
  <way id='-102643' action='modify' visible='true'>
    <nd ref='-102622' />
    <nd ref='-102623' />
    <nd ref='-102624' />
    <nd ref='-102625' />
    <nd ref='-102626' />
    <nd ref='-102627' />
    <nd ref='-102628' />
    <nd ref='-102629' />
    <nd ref='-102630' />
    <nd ref='-102631' />
    <nd ref='-102632' />
    <nd ref='-102633' />
    <nd ref='-102634' />
    <nd ref='-102635' />
    <nd ref='-102636' />
    <nd ref='-102637' />
    <nd ref='-102638' />
    <nd ref='-102639' />
    <nd ref='-102640' />
    <nd ref='-102641' />
    <nd ref='-102642' />
    <nd ref='-102643' />
    <nd ref='-102644' />
    <nd ref='-102645' />
    <nd ref='-102646' />
    <nd ref='-102647' />
    <nd ref='-102648' />
    <nd ref='-102649' />
    <nd ref='-102650' />
    <nd ref='-102651' />
    <nd ref='-102652' />
    <nd ref='-102653' />
    <nd ref='-102654' />
    <nd ref='-102655' />
    <nd ref='-102656' />
  </way>
  <way id='-102646' action='modify' visible='true'>
    <nd ref='-102290' />
    <nd ref='-102291' />
    <nd ref='-102292' />
  </way>
  <way id='-102651' action='modify' visible='true'>
    <nd ref='-102294' />
    <nd ref='-102702' />
    <nd ref='-102703' />
    <nd ref='-102704' />
    <nd ref='-102705' />
    <nd ref='-102706' />
    <nd ref='-102707' />
    <nd ref='-102708' />
    <nd ref='-102709' />
    <nd ref='-102710' />
    <nd ref='-102711' />
    <nd ref='-102712' />
    <nd ref='-102713' />
    <nd ref='-102714' />
    <nd ref='-102715' />
    <nd ref='-102716' />
    <nd ref='-102717' />
    <nd ref='-102718' />
    <nd ref='-102719' />
    <nd ref='-102720' />
    <nd ref='-102721' />
    <nd ref='-102722' />
    <nd ref='-102723' />
    <nd ref='-102724' />
    <nd ref='-102725' />
    <nd ref='-102726' />
    <nd ref='-102727' />
    <nd ref='-102728' />
    <nd ref='-102730' />
  </way>
</osm>
